[{"OBJECT_NAME":"GEESAT-2 06","OBJECT_ID":"2024-023F","EPOCH":"2026-03-09T23:05:26.548512","MEAN_MOTION":15.0311163,"ECCENTRICITY":0.0006403,"INCLINATION":49.9884,"RA_OF_ASC_NODE":54.2248,"ARG_OF_PERICENTER":18.468,"MEAN_ANOMALY":341.6498,"EPHEMERIS_TYPE":0,"CLASSIFICATION_TYPE":"U","NORAD_CAT_ID":58910,"ELEMENT_SET_NO":999,"REV_AT_EPOCH":11471,"BSTAR":0.00060492991,"MEAN_MOTION_DOT":8.006e-5,"MEAN_MOTION_DDOT":0},{"OBJECT_NAME":"STARLINK-35142","OBJECT_ID":"2025-194A","EPOCH":"2026-03-09T13:19:58.831392","MEAN_MOTION":15.05636301,"ECCENTRICITY":0.00015538,"INCLINATION":97.602,"RA_OF_ASC_NODE":284.1856,"ARG_OF_PERICENTER":85.541,"MEAN_ANOMALY":274.5994,"EPHEMERIS_TYPE":0,"CLASSIFICATION_TYPE":"U","NORAD_CAT_ID":65434,"ELEMENT_SET_NO":999,"REV_AT_EPOCH":2962,"BSTAR":0.00050523621,"MEAN_MOTION_DOT":7.234e-5,"MEAN_MOTION_DDOT":0}]
